[{"OBJECT_NAME":"ONEWEB-0366","OBJECT_ID":"2021-090P","EPOCH":"2026-03-05T14:40:09.999840","MEAN_MOTION":13.14501946,"ECCENTRICITY":0.00016278,"INCLINATION":87.8986,"RA_OF_ASC_NODE":310.379,"ARG_OF_PERICENTER":79.5415,"MEAN_ANOMALY":280.5898,"EPHEMERIS_TYPE":0,"CLASSIFICATION_TYPE":"U","NORAD_CAT_ID":49292,"ELEMENT_SET_NO":999,"REV_AT_EPOCH":21395,"BSTAR":-2.0572302e-5,"MEAN_MOTION_DOT":5.0e-8,"MEAN_MOTION_DDOT":0},{"OBJECT_NAME":"ONEWEB-0367","OBJECT_ID":"2021-090Q","EPOCH":"2026-03-05T14:29:03.105888","MEAN_MOTION":13.20772871,"ECCENTRICITY":0.0001779,"INCLINATION":87.918,"RA_OF_ASC_NODE":295.1204,"ARG_OF_PERICENTER":86.3912,"MEAN_ANOMALY":273.7424,"EPHEMERIS_TYPE":0,"CLASSIFICATION_TYPE":"U","NORAD_CAT_ID":49293,"ELEMENT_SET_NO":999,"REV_AT_EPOCH":21615,"BSTAR":2.7361945e-5,"MEAN_MOTION_DOT":2.4e-7,"MEAN_MOTION_DDOT":0},{"OBJECT_NAME":"ONEWEB-0368","OBJECT_ID":"2021-090R","EPOCH":"2026-03-05T13:50:24.871200","MEAN_MOTION":13.20773479,"ECCENTRICITY":9.779e-5,"INCLINATION":87.917,"RA_OF_ASC_NODE":295.1478,"ARG_OF_PERICENTER":105.6593,"MEAN_ANOMALY":254.4648,"EPHEMERIS_TYPE":0,"CLASSIFICATION_TYPE":"U","NORAD_CAT_ID":49294,"ELEMENT_SET_NO":999,"REV_AT_EPOCH":21730,"BSTAR":0.0001351733,"MEAN_MOTION_DOT":6.8e-7,"MEAN_MOTION_DDOT":0},{"OBJECT_NAME":"ONEWEB-0369","OBJECT_ID":"2021-090S","EPOCH":"2026-03-05T11:09:00.823104","MEAN_MOTION":13.19725621,"ECCENTRICITY":0.00015888,"INCLINATION":87.9238,"RA_OF_ASC_NODE":325.6398,"ARG_OF_PERICENTER":81.9731,"MEAN_ANOMALY":278.1582,"EPHEMERIS_TYPE":0,"CLASSIFICATION_TYPE":"U","NORAD_CAT_ID":49295,"ELEMENT_SET_NO":999,"REV_AT_EPOCH":21273,"BSTAR":-1.285184e-6,"MEAN_MOTION_DOT":1.2e-7,"MEAN_MOTION_DDOT":0},{"OBJECT_NAME":"ONEWEB-0370","OBJECT_ID":"2021-090T","EPOCH":"2026-03-05T14:42:42.220224","MEAN_MOTION":13.20771616,"ECCENTRICITY":0.00018855,"INCLINATION":87.9177,"RA_OF_ASC_NODE":295.1201,"ARG_OF_PERICENTER":81.7676,"MEAN_ANOMALY":278.3671,"EPHEMERIS_TYPE":0,"CLASSIFICATION_TYPE":"U","NORAD_CAT_ID":49296,"ELEMENT_SET_NO":999,"REV_AT_EPOCH":21619,"BSTAR":-6.3837016e-5,"MEAN_MOTION_DOT":-1.3e-7,"MEAN_MOTION_DDOT":0},{"OBJECT_NAME":"ONEWEB-0371","OBJECT_ID":"2021-090U","EPOCH":"2026-03-05T14:58:44.341248","MEAN_MOTION":13.19725306,"ECCENTRICITY":0.00017162,"INCLINATION":87.924,"RA_OF_ASC_NODE":325.597,"ARG_OF_PERICENTER":83.5852,"MEAN_ANOMALY":276.5476,"EPHEMERIS_TYPE":0,"CLASSIFICATION_TYPE":"U","NORAD_CAT_ID":49297,"ELEMENT_SET_NO":999,"REV_AT_EPOCH":21279,"BSTAR":1.1293733e-5,"MEAN_MOTION_DOT":1.7e-7,"MEAN_MOTION_DDOT":0},{"OBJECT_NAME":"ONEWEB-0372","OBJECT_ID":"2021-090V","EPOCH":"2026-03-05T14:26:36.174912","MEAN_MOTION":13.20771677,"ECCENTRICITY":0.00016258,"INCLINATION":87.9176,"RA_OF_ASC_NODE":295.1224,"ARG_OF_PERICENTER":87.7704,"MEAN_ANOMALY":272.3616,"EPHEMERIS_TYPE":0,"CLASSIFICATION_TYPE":"U","NORAD_CAT_ID":49298,"ELEMENT_SET_NO":999,"REV_AT_EPOCH":21616,"BSTAR":-9.2422333e-5,"MEAN_MOTION_DOT":-2.5e-7,"MEAN_MOTION_DDOT":0},{"OBJECT_NAME":"ONEWEB-0373","OBJECT_ID":"2021-090W","EPOCH":"2026-03-05T13:16:19.548192","MEAN_MOTION":13.20769989,"ECCENTRICITY":0.0001622,"INCLINATION":87.9168,"RA_OF_ASC_NODE":295.1378,"ARG_OF_PERICENTER":82.8028,"MEAN_ANOMALY":277.329,"EPHEMERIS_TYPE":0,"CLASSIFICATION_TYPE":"U","NORAD_CAT_ID":49299,"ELEMENT_SET_NO":999,"REV_AT_EPOCH":21734,"BSTAR":1.9993807e-5,"MEAN_MOTION_DOT":2.1e-7,"MEAN_MOTION_DDOT":0},{"OBJECT_NAME":"ONEWEB-0374","OBJECT_ID":"2021-090X","EPOCH":"2026-03-05T08:53:03.977952","MEAN_MOTION":13.14501977,"ECCENTRICITY":0.00011637,"INCLINATION":87.8997,"RA_OF_ASC_NODE":310.4106,"ARG_OF_PERICENTER":66.9892,"MEAN_ANOMALY":293.1361,"EPHEMERIS_TYPE":0,"CLASSIFICATION_TYPE":"U","NORAD_CAT_ID":49300,"ELEMENT_SET_NO":999,"REV_AT_EPOCH":21392,"BSTAR":0.00066366751,"MEAN_MOTION_DOT":2.59e-6,"MEAN_MOTION_DDOT":0},{"OBJECT_NAME":"ONEWEB-0375","OBJECT_ID":"2021-090Y","EPOCH":"2026-03-05T14:47:15.301248","MEAN_MOTION":13.20771609,"ECCENTRICITY":0.00014259,"INCLINATION":87.918,"RA_OF_ASC_NODE":295.1124,"ARG_OF_PERICENTER":63.9494,"MEAN_ANOMALY":296.1786,"EPHEMERIS_TYPE":0,"CLASSIFICATION_TYPE":"U","NORAD_CAT_ID":49301,"ELEMENT_SET_NO":999,"REV_AT_EPOCH":21685,"BSTAR":-5.599675e-6,"MEAN_MOTION_DOT":1.1e-7,"MEAN_MOTION_DDOT":0},{"OBJECT_NAME":"ONEWEB-0376","OBJECT_ID":"2021-090Z","EPOCH":"2026-03-05T05:50:34.356480","MEAN_MOTION":13.1972679,"ECCENTRICITY":0.00016831,"INCLINATION":87.9242,"RA_OF_ASC_NODE":325.6661,"ARG_OF_PERICENTER":87.8335,"MEAN_ANOMALY":272.299,"EPHEMERIS_TYPE":0,"CLASSIFICATION_TYPE":"U","NORAD_CAT_ID":49302,"ELEMENT_SET_NO":999,"REV_AT_EPOCH":21274,"BSTAR":0.00014397664,"MEAN_MOTION_DOT":7.1e-7,"MEAN_MOTION_DDOT":0},{"OBJECT_NAME":"ONEWEB-0377","OBJECT_ID":"2021-090AA","EPOCH":"2026-03-05T14:26:58.708896","MEAN_MOTION":13.20775034,"ECCENTRICITY":0.00017415,"INCLINATION":87.9179,"RA_OF_ASC_NODE":295.1169,"ARG_OF_PERICENTER":77.7356,"MEAN_ANOMALY":282.3972,"EPHEMERIS_TYPE":0,"CLASSIFICATION_TYPE":"U","NORAD_CAT_ID":49303,"ELEMENT_SET_NO":999,"REV_AT_EPOCH":21684,"BSTAR":-0.0022377911,"MEAN_MOTION_DOT":-8.97e-6,"MEAN_MOTION_DDOT":0},{"OBJECT_NAME":"ONEWEB-0378","OBJECT_ID":"2021-090AB","EPOCH":"2026-03-05T14:58:47.168256","MEAN_MOTION":13.20773218,"ECCENTRICITY":0.00014787,"INCLINATION":87.917,"RA_OF_ASC_NODE":295.1236,"ARG_OF_PERICENTER":83.4998,"MEAN_ANOMALY":276.6303,"EPHEMERIS_TYPE":0,"CLASSIFICATION_TYPE":"U","NORAD_CAT_ID":49304,"ELEMENT_SET_NO":999,"REV_AT_EPOCH":21611,"BSTAR":3.1956368e-5,"MEAN_MOTION_DOT":2.6e-7,"MEAN_MOTION_DDOT":0},{"OBJECT_NAME":"ONEWEB-0379","OBJECT_ID":"2021-090AC","EPOCH":"2026-03-05T14:15:02.948832","MEAN_MOTION":13.14502273,"ECCENTRICITY":0.00014801,"INCLINATION":87.8995,"RA_OF_ASC_NODE":310.3756,"ARG_OF_PERICENTER":81.0064,"MEAN_ANOMALY":279.1233,"EPHEMERIS_TYPE":0,"CLASSIFICATION_TYPE":"U","NORAD_CAT_ID":49305,"ELEMENT_SET_NO":999,"REV_AT_EPOCH":21395,"BSTAR":0.00054572536,"MEAN_MOTION_DOT":2.15e-6,"MEAN_MOTION_DDOT":0},{"OBJECT_NAME":"ONEWEB-0380","OBJECT_ID":"2021-090AD","EPOCH":"2026-03-05T14:51:54.336096","MEAN_MOTION":13.19726556,"ECCENTRICITY":0.00017567,"INCLINATION":87.9236,"RA_OF_ASC_NODE":325.607,"ARG_OF_PERICENTER":71.5009,"MEAN_ANOMALY":288.6315,"EPHEMERIS_TYPE":0,"CLASSIFICATION_TYPE":"U","NORAD_CAT_ID":49306,"ELEMENT_SET_NO":999,"REV_AT_EPOCH":21276,"BSTAR":1.400367e-5,"MEAN_MOTION_DOT":1.9e-7,"MEAN_MOTION_DDOT":0},{"OBJECT_NAME":"ONEWEB-0381","OBJECT_ID":"2021-090AE","EPOCH":"2026-03-05T14:22:13.691712","MEAN_MOTION":13.20771958,"ECCENTRICITY":0.00014335,"INCLINATION":87.9179,"RA_OF_ASC_NODE":295.1212,"ARG_OF_PERICENTER":75.9696,"MEAN_ANOMALY":284.1597,"EPHEMERIS_TYPE":0,"CLASSIFICATION_TYPE":"U","NORAD_CAT_ID":49307,"ELEMENT_SET_NO":999,"REV_AT_EPOCH":21615,"BSTAR":-0.00020565457,"MEAN_MOTION_DOT":-7.1e-7,"MEAN_MOTION_DDOT":0},{"OBJECT_NAME":"ONEWEB-0382","OBJECT_ID":"2021-090AF","EPOCH":"2026-03-05T14:04:03.016128","MEAN_MOTION":13.20773377,"ECCENTRICITY":0.00013074,"INCLINATION":87.9182,"RA_OF_ASC_NODE":295.1201,"ARG_OF_PERICENTER":77.7696,"MEAN_ANOMALY":282.3583,"EPHEMERIS_TYPE":0,"CLASSIFICATION_TYPE":"U","NORAD_CAT_ID":49308,"ELEMENT_SET_NO":999,"REV_AT_EPOCH":21614,"BSTAR":0.00031856369,"MEAN_MOTION_DOT":1.43e-6,"MEAN_MOTION_DDOT":0}]
