ONEWEB-0366             
1 49292U 21090P   26064.61122685  .00000005  00000+0 -20572-4 0  9992
2 49292  87.8986 310.3790 0001627  79.5415 280.5898 13.14501946213958
ONEWEB-0367             
1 49293U 21090Q   26064.60350817  .00000024  00000+0  27362-4 0  9996
2 49293  87.9180 295.1204 0001779  86.3912 273.7424 13.20772871216150
ONEWEB-0368             
1 49294U 21090R   26064.57667675  .00000068  00000+0  13517-3 0  9990
2 49294  87.9170 295.1478 0000977 105.6593 254.4648 13.20773479217309
ONEWEB-0369             
1 49295U 21090S   26064.46459286  .00000012  00000+0 -12852-5 0  9999
2 49295  87.9238 325.6398 0001588  81.9731 278.1582 13.19725621212730
ONEWEB-0370             
1 49296U 21090T   26064.61298866 -.00000013  00000+0 -63837-4 0  9992
2 49296  87.9177 295.1201 0001885  81.7676 278.3671 13.20771616216195
ONEWEB-0371             
1 49297U 21090U   26064.62412432  .00000017  00000+0  11294-4 0  9993
2 49297  87.9240 325.5970 0001716  83.5852 276.5476 13.19725306212795
ONEWEB-0372             
1 49298U 21090V   26064.60180758 -.00000025  00000+0 -92422-4 0  9998
2 49298  87.9176 295.1224 0001625  87.7704 272.3616 13.20771677216168
ONEWEB-0373             
1 49299U 21090W   26064.55300403  .00000021  00000+0  19994-4 0  9991
2 49299  87.9168 295.1378 0001622  82.8028 277.3290 13.20769989217349
ONEWEB-0374             
1 49300U 21090X   26064.37018493  .00000259  00000+0  66367-3 0  9997
2 49300  87.8997 310.4106 0001163  66.9892 293.1361 13.14501977213922
ONEWEB-0375             
1 49301U 21090Y   26064.61614932  .00000011  00000+0 -55997-5 0  9991
2 49301  87.9180 295.1124 0001425  63.9494 296.1786 13.20771609216850
ONEWEB-0376             
1 49302U 21090Z   26064.24345320  .00000071  00000+0  14398-3 0  9996
2 49302  87.9242 325.6661 0001683  87.8335 272.2990 13.19726790212745
ONEWEB-0377             
1 49303U 21090AA  26064.60206839 -.00000897  00000+0 -22378-2 0  9992
2 49303  87.9179 295.1169 0001741  77.7356 282.3972 13.20775034216849
ONEWEB-0378             
1 49304U 21090AB  26064.62415704  .00000026  00000+0  31956-4 0  9994
2 49304  87.9170 295.1236 0001478  83.4998 276.6303 13.20773218216115
ONEWEB-0379             
1 49305U 21090AC  26064.59378413  .00000215  00000+0  54573-3 0  9995
2 49305  87.8995 310.3756 0001480  81.0064 279.1233 13.14502273213951
ONEWEB-0380             
1 49306U 21090AD  26064.61937889  .00000019  00000+0  14004-4 0  9995
2 49306  87.9236 325.6070 0001756  71.5009 288.6315 13.19726556212769
ONEWEB-0381             
1 49307U 21090AE  26064.59876958 -.00000071  00000+0 -20565-3 0  9990
2 49307  87.9179 295.1212 0001433  75.9696 284.1597 13.20771958216155
ONEWEB-0382             
1 49308U 21090AF  26064.58614602  .00000143  00000+0  31856-3 0  9999
2 49308  87.9182 295.1201 0001307  77.7696 282.3583 13.20773377216149
